STARLINK-37003          
1 68170U 26050D   26078.56952426 -.00716345  17815-3 -15382-2 0  9991
2 68170  53.1620 232.5407 0000461 327.9149  32.1853 15.97788708  2037
STARLINK-37034          
1 68171U 26050E   26078.56928901 -.00745719  19165-3 -15903-2 0  9999
2 68171  53.1619 232.5395 0000585 340.0636  20.0371 15.97919140  2033
STARLINK-37031          
1 68172U 26050F   26078.56904187 -.00746879  19250-3 -15788-2 0  9994
2 68172  53.1620 232.5378 0000458 346.3779  13.7239 15.98076782  2032
STARLINK-37076          
1 68173U 26050G   26078.50625542 -.00864982  25162-3 -17873-2 0  9996
2 68173  53.1615 232.8571 0000645 359.7564   0.3466 15.98507778  2020
STARLINK-37078          
1 68174U 26050H   26078.56858123 -.00805867  22125-3 -16768-2 0  9991
2 68174  53.1617 232.5342 0000261  74.2706 285.8353 15.98372202  2035
STARLINK-36886          
1 68175U 26050J   26078.56836353 -.00726912  18427-3 -14987-2 0  9997
2 68175  53.1618 232.5329 0000812 328.5582  31.5400 15.98517353  2038
STARLINK-36905          
1 68176U 26050K   26078.56812124 -.00710734  17733-3 -14521-2 0  9996
2 68176  53.1619 232.5315 0000718 321.9812  38.1167 15.98675796  2032
STARLINK-36668          
1 68177U 26050L   26078.56786617 -.00720821  18212-3 -14604-2 0  9997
2 68177  53.1621 232.5297 0000696 333.7333  26.3662 15.98826248  2038
STARLINK-36677          
1 68178U 26050M   26078.56764237 -.00929161  28745-3 -18795-2 0  9997
2 68178  53.1619 232.5274 0000919  18.8959 341.2106 15.98898420  2037
STARLINK-37052          
1 68179U 26050N   26078.56738279 -.00666179  15892-3 -13225-2 0  9994
2 68179  53.1613 232.5262 0000847 251.3193 108.7745 15.99173693  2037
STARLINK-37035          
1 68180U 26050P   26078.56718619 -.00690810  16965-3 -13647-2 0  9991
2 68180  53.1621 232.5248 0000593 324.9508  35.1483 15.99266404  2032
STARLINK-37032          
1 68181U 26050Q   26078.56692649 -.00700217  17407-3 -13712-2 0  9994
2 68181  53.1621 232.5236 0000799 332.8854  27.2135 15.99422141  2038
